CTC2_L_00231016-03
1 10062U 22685MP  26075.70042824  .00000000  00000+0  00000-0 0  9998
2 10062  80.0000 180.0000 0000000   0.0000   0.0000 14.24551792    19
CTC2_L_00231016-04
1 10063U 22924YT  26075.70042824  .00000000  00000+0  00000-0 0  9995
2 10063  80.0000 180.0000 0000000   0.0000  90.0000 14.24551792    19
CTC2_L_00231017-01
1 10064U 24863LH  26075.70042824  .00000000  00000+0  00000-0 0  9990
2 10064  80.0000 192.0000 0000000   0.0000 192.0000 14.24551792    16
CTC2_L_00231017-02
1 10065U 24427FK  26075.70042824  .00000000  00000+0  00000-0 0  9997
2 10065  80.0000 192.0000 0000000   0.0000 282.0000 14.24551792    17
CTC2_L_00231017-03
1 10066U 26675RI  26075.70042824  .00000000  00000+0  00000-0 0  9995
2 10066  80.0000 192.0000 0000000   0.0000  12.0000 14.24551792    19
CTC2_L_00231017-04
1 10067U 26652CI  26075.70042824  .00000000  00000+0  00000-0 0  9991
2 10067  80.0000 192.0000 0000000   0.0000 102.0000 14.24551792    10
CTC2_L_00231018-01
1 10068U 25122DQ  26075.70042824  .00000000  00000+0  00000-0 0  9993
2 10068  80.0000 204.0000 0000000   0.0000 204.0000 14.24551792    18
CTC2_L_00231018-02
1 10069U 25742BG  26075.70042824  .00000000  00000+0  00000-0 0  9992
2 10069  80.0000 204.0000 0000000   0.0000 294.0000 14.24551792    18
CTC2_L_00231018-03
1 10070U 24206SB  26075.70042824  .00000000  00000+0  00000-0 0  9998
2 10070  80.0000 204.0000 0000000   0.0000  24.0000 14.24551792    11
CTC2_L_00231018-04
1 10071U 23279BK  26075.70042824  .00000000  00000+0  00000-0 0  9998
2 10071  80.0000 204.0000 0000000   0.0000 114.0000 14.24551792    12
CTC2_L_00231019-01
1 10072U 23173FX  26075.70042824  .00000000  00000+0  00000-0 0  9992
2 10072  80.0000 216.0000 0000000   0.0000 216.0000 14.24551792    19
CTC2_L_00231019-02
1 10073U 25446JK  26075.70042824  .00000000  00000+0  00000-0 0  9998
2 10073  80.0000 216.0000 0000000   0.0000 306.0000 14.24551792    10
CTC2_L_00231019-03
1 10074U 24247LU  26075.70042824  .00000000  00000+0  00000-0 0  9997
2 10074  80.0000 216.0000 0000000   0.0000  36.0000 14.24551792    11
CTC2_L_00231019-04
1 10075U 25375IT  26075.70042824  .00000000  00000+0  00000-0 0  9991
2 10075  80.0000 216.0000 0000000   0.0000 126.0000 14.24551792    12
CTC2_L_00231020-01
1 10076U 25813T   26075.70042824  .00000000  00000+0  00000-0 0  9999
2 10076  80.0000 228.0000 0000000   0.0000 228.0000 14.24551792    19
CTC2_L_00231020-02
1 10077U 25785M   26075.70042824  .00000000  00000+0  00000-0 0  9998
2 10077  80.0000 228.0000 0000000   0.0000 318.0000 14.24551792    10
CTC2_L_00231020-03
1 10078U 25046AY  26075.70042824  .00000000  00000+0  00000-0 0  9999
2 10078  80.0000 228.0000 0000000   0.0000  48.0000 14.24551792    11
CTC2_L_00231020-04
1 10079U 26749FF  26075.70042824  .00000000  00000+0  00000-0 0  9991
2 10079  80.0000 228.0000 0000000   0.0000 138.0000 14.24551792    12
CTC2_L_00231021-01
1 10080U 24995SV  26075.70042824  .00000000  00000+0  00000-0 0  9994
2 10080  80.0000 240.0000 0000000   0.0000 240.0000 14.24551792    12
CTC2_L_00231021-02
1 10081U 23426CL  26075.70042824  .00000000  00000+0  00000-0 0  9993
2 10081  80.0000 240.0000 0000000   0.0000 330.0000 14.24551792    13
CTC2_L_00231021-03
1 10082U 25365AA  26075.70042824  .00000000  00000+0  00000-0 0  9998
2 10082  80.0000 240.0000 0000000   0.0000  60.0000 14.24551792    14
CTC2_L_00231021-04
1 10083U 23131KL  26075.70042824  .00000000  00000+0  00000-0 0  9998
2 10083  80.0000 240.0000 0000000   0.0000 150.0000 14.24551792    15
CTC2_L_00231022-01
1 10084U 23261OI  26075.70042824  .00000000  00000+0  00000-0 0  9993
2 10084  80.0000 252.0000 0000000   0.0000 252.0000 14.24551792    12
CTC2_L_00231022-02
1 10085U 23470MT  26075.70042824  .00000000  00000+0  00000-0 0  9996
2 10085  80.0000 252.0000 0000000   0.0000 342.0000 14.24551792    13
CTC2_L_00231022-03
1 10086U 24176TG  26075.70042824  .00000000  00000+0  00000-0 0  9991
2 10086  80.0000 252.0000 0000000   0.0000  72.0000 14.24551792    14
CTC2_L_00231022-04
1 10087U 25752YR  26075.70042824  .00000000  00000+0  00000-0 0  9993
2 10087  80.0000 252.0000 0000000   0.0000 162.0000 14.24551792    15
CTC2_L_00231023-01
1 10088U 26830OZ  26075.70042824  .00000000  00000+0  00000-0 0  9992
2 10088  80.0000 264.0000 0000000   0.0000 264.0000 14.24551792    12
CTC2_L_00231023-02
1 10089U 25632PE  26075.70042824  .00000000  00000+0  00000-0 0  9992
2 10089  80.0000 264.0000 0000000   0.0000 354.0000 14.24551792    13
CTC2_L_00231023-03
1 10090U 22106NN  26075.70042824  .00000000  00000+0  00000-0 0  9997
2 10090  80.0000 264.0000 0000000   0.0000  84.0000 14.24551792    15
CTC2_L_00231023-04
1 10091U 26510MC  26075.70042824  .00000000  00000+0  00000-0 0  9991
2 10091  80.0000 264.0000 0000000   0.0000 174.0000 14.24551792    16
CTC2_L_00231024-01
1 10092U 22957DL  26075.70042824  .00000000  00000+0  00000-0 0  9993
2 10092  80.0000 276.0000 0000000   0.0000 276.0000 14.24551792    13
CTC2_L_00231024-02
1 10093U 22796BH  26075.70042824  .00000000  00000+0  00000-0 0  9995
2 10093  80.0000 276.0000 0000000   0.0000   6.0000 14.24551792    15
CTC2_L_00231024-03
1 10094U 22601UL  26075.70042824  .00000000  00000+0  00000-0 0  9991
2 10094  80.0000 276.0000 0000000   0.0000  96.0000 14.24551792    15
CTC2_L_00231024-04
1 10095U 25191HX  26075.70042824  .00000000  00000+0  00000-0 0  9999
2 10095  80.0000 276.0000 0000000   0.0000 186.0000 14.24551792    16
CTC2_L_00231025-01
1 10096U 23556CL  26075.70042824  .00000000  00000+0  00000-0 0  9993
2 10096  80.0000 288.0000 0000000   0.0000 288.0000 14.24551792    13
CTC2_L_00231025-02
1 10097U 23459OK  26075.70042824  .00000000  00000+0  00000-0 0  9996
2 10097  80.0000 288.0000 0000000   0.0000  18.0000 14.24551792    15
CTC2_L_00231025-03
1 10098U 26806SG  26075.70042824  .00000000  00000+0  00000-0 0  9996
2 10098  80.0000 288.0000 0000000   0.0000 108.0000 14.24551792    16
CTC2_L_00231025-04
1 10099U 22284YO  26075.70042824  .00000000  00000+0  00000-0 0  9993
2 10099  80.0000 288.0000 0000000   0.0000 198.0000 14.24551792    16
CTC2_L_00231026-01
1 10100U 24884HJ  26075.70042824  .00000000  00000+0  00000-0 0  9994
2 10100  80.0000 300.0000 0000000   0.0000 300.0000 14.24551792    19
CTC2_L_00231026-02
1 10101U 25514H   26075.70042824  .00000000  00000+0  00000-0 0  9996
2 10101  80.0000 300.0000 0000000   0.0000  30.0000 14.24551792    10
CTC2_L_00231026-03
1 10102U 24655ZA  26075.70042824  .00000000  00000+0  00000-0 0  9992
2 10102  80.0000 300.0000 0000000   0.0000 120.0000 14.24551792    11
CTC2_L_00231026-04
1 10103U 24844LM  26075.70042824  .00000000  00000+0  00000-0 0  9993
2 10103  80.0000 300.0000 0000000   0.0000 210.0000 14.24551792    12
CTC2_L_00231027-01
1 10104U 22390YN  26075.70042824  .00000000  00000+0  00000-0 0  9998
2 10104  80.0000 312.0000 0000000   0.0000 312.0000 14.24551792    19
CTC2_L_00231027-02
1 10105U 22177KL  26075.70042824  .00000000  00000+0  00000-0 0  9992
2 10105  80.0000 312.0000 0000000   0.0000  42.0000 14.24551792    10
CTC2_L_00231027-03
1 10106U 24225IX  26075.70042824  .00000000  00000+0  00000-0 0  9999
2 10106  80.0000 312.0000 0000000   0.0000 132.0000 14.24551792    11
CTC2_L_00231027-04
1 10107U 26334PA  26075.70042824  .00000000  00000+0  00000-0 0  9993
2 10107  80.0000 312.0000 0000000   0.0000 222.0000 14.24551792    12
CTC2_L_00231028-01
1 10108U 26315CJ  26075.70042824  .00000000  00000+0  00000-0 0  9993
2 10108  80.0000 324.0000 0000000   0.0000 324.0000 14.24551792    19
CTC2_L_00231028-02
1 10109U 26955GQ  26075.70042824  .00000000  00000+0  00000-0 0  9994
2 10109  80.0000 324.0000 0000000   0.0000  54.0000 14.24551792    10
CTC2_L_00231028-03
1 10110U 24832CK  26075.70042824  .00000000  00000+0  00000-0 0  9998
2 10110  80.0000 324.0000 0000000   0.0000 144.0000 14.24551792    12
CTC2_L_00231028-04
1 10111U 24232PW  26075.70042824  .00000000  00000+0  00000-0 0  9993
2 10111  80.0000 324.0000 0000000   0.0000 234.0000 14.24551792    13
CTC2_L_00231029-01
1 10112U 25394TX  26075.70042824  .00000000  00000+0  00000-0 0  9994
2 10112  80.0000 336.0000 0000000   0.0000 336.0000 14.24551792    10
CTC2_L_00231029-02
1 10113U 22561UA  26075.70042824  .00000000  00000+0  00000-0 0  9998
2 10113  80.0000 336.0000 0000000   0.0000  66.0000 14.24551792    11
CTC2_L_00231029-03
1 10114U 23237CS  26075.70042824  .00000000  00000+0  00000-0 0  9990
2 10114  80.0000 336.0000 0000000   0.0000 156.0000 14.24551792    12
CTC2_L_00231029-04
1 10115U 22635TQ  26075.70042824  .00000000  00000+0  00000-0 0  9992
2 10115  80.0000 336.0000 0000000   0.0000 246.0000 14.24551792    13
CTC2_L_00231030-01
1 10116U 23286KB  26075.70042824  .00000000  00000+0  00000-0 0  9996
2 10116  80.0000 348.0000 0000000   0.0000 348.0000 14.24551792    10
CTC2_L_00231030-02
1 10117U 25384QD  26075.70042824  .00000000  00000+0  00000-0 0  9998
2 10117  80.0000 348.0000 0000000   0.0000  78.0000 14.24551792    11
CTC2_L_00231030-03
1 10118U 26589ZT  26075.70042824  .00000000  00000+0  00000-0 0  9997
2 10118  80.0000 348.0000 0000000   0.0000 168.0000 14.24551792    12
CTC2_L_00231030-04
1 10119U 25410JS  26075.70042824  .00000000  00000+0  00000-0 0  9990
2 10119  80.0000 348.0000 0000000   0.0000 258.0000 14.24551792    13
